ONEWEB-0597             
1 54663U 22166X   26181.15604132  .00000058  00000+0  10980-3 0  9994
2 54663  87.9246 241.4070 0001956  94.4096 265.7261 13.21827417173256
ONEWEB-0600             
1 54664U 22166Y   26181.21324756  .00000014  00000+0  18100-5 0  9999
2 54664  87.9247 241.3870 0001824  99.1234 261.0106 13.21824912173237
ONEWEB-0601             
1 54665U 22166Z   26181.58330135  .00000089  00000+0  18360-3 0  9996
2 54665  87.9243 241.3293 0001877  90.7568 269.3781 13.21824502173479
ONEWEB-0602             
1 54666U 22166AA  26181.17033632  .00000058  00000+0  10783-3 0  9991
2 54666  87.9242 241.4173 0001772  99.5763 260.5571 13.21827357173263
ONEWEB-0603             
1 54667U 22166AB  26181.17623107  .00000098  00000+0  20475-3 0  9997
2 54667  87.9251 241.3747 0001954  96.7875 263.3482 13.21827489173195
ONEWEB-0604             
1 54668U 22166AC  26181.16443052  .00000062  00000+0  11830-3 0  9992
2 54668  87.9254 241.3925 0002082  99.7360 260.4009 13.21828715173154
ONEWEB-0605             
1 54669U 22166AD  26181.15772703  .00000038  00000+0  59501-4 0  9991
2 54669  87.9245 241.4063 0002270  81.5949 278.5442 13.21827688173227
ONEWEB-0606             
1 54670U 22166AE  26181.17958276  .00000734  00000+0  17464-2 0  9999
2 54670  87.9242 241.4144 0002115 102.2366 257.9005 13.21822817173289
ONEWEB-0607             
1 54671U 22166AF  26181.22165784 -.00000028  00000+0 -98361-4 0  9995
2 54671  87.9253 241.3777 0001883  95.7324 264.4025 13.21824883173262
ONEWEB-0608             
1 54672U 22166AG  26181.15265108  .00000056  00000+0  10472-3 0  9994
2 54672  87.9254 241.3885 0001977  82.5797 277.5562 13.21828314173260
ONEWEB-0610             
1 54673U 22166AH  26181.20820036  .00000109  00000+0  23210-3 0  9991
2 54673  87.9246 241.3905 0001693  80.9327 279.1998 13.21824943173176
ONEWEB-0611             
1 54674U 22166AJ  26181.57993369  .00000087  00000+0  18020-3 0  9990
2 54674  87.9242 241.3124 0002122 100.6051 259.5322 13.21826006173218
ONEWEB-0612             
1 54675U 22166AK  26181.21493010  .00000030  00000+0  40763-4 0  9998
2 54675  87.9258 241.3819 0001969  92.9703 267.1656 13.21825685173152
ONEWEB-0615             
1 54676U 22166AL  26181.57321617  .00000101  00000+0  21356-3 0  9996
2 54676  87.9248 241.3241 0002084 105.4325 254.7039 13.21827348173212
ONEWEB-0655             
1 54677U 22166AM  26181.17118080  .00000119  00000+0  25556-3 0  9996
2 54677  87.9245 241.4048 0001798  98.2941 261.8397 13.21827644173158
ONEWEB-0659             
1 54678U 22166AN  26181.18800436 -.00000248  00000+0 -63133-3 0  9999
2 54678  87.9240 241.4026 0002092  99.1120 261.0251 13.21830457173244
ONEWEB-0685             
1 54679U 22166AP  26181.56636028  .00000035  00000+0  54393-4 0  9997
2 54679  87.9241 241.3184 0001855  88.4468 271.6878 13.21847908173186
ONEWEB-0712             
1 54680U 22166AQ  26181.13149512  .00000098  00000+0  22224-3 0  9995
2 54680  87.9091 226.2040 0001584 100.9276 259.2034 13.16595380173768
ONEWEB-0714             
1 54681U 22166AR  26181.57154189  .00000027  00000+0  33504-4 0  9996
2 54681  87.9242 241.3150 0001812 104.4388 255.6947 13.21825330173304
ONEWEB-0532             
1 55140U 23004A   26181.47319892  .00000053  00000+0  10340-3 0  9993
2 55140  87.9129   3.2208 0002151  84.5290 275.6086 13.17647509169334
ONEWEB-0533             
1 55141U 23004B   26181.49395006 -.00000434  00000+0 -12429-2 0  9991
2 55141  87.8951 348.0238 0001689  87.5995 272.5327 13.12442237169802
ONEWEB-0541             
1 55142U 23004C   26181.53424019  .00000537  00000+0  14793-2 0  9992
2 55142  87.8888  18.4013 0002001  90.3014 269.8343 13.11416354167696
ONEWEB-0543             
1 55143U 23004D   26181.44226048  .00000080  00000+0  16946-3 0  9991
2 55143  87.9174 332.8318 0001665 100.8540 259.2779 13.18686765171449
ONEWEB-0544             
1 55144U 23004E   26181.43551643  .00000073  00000+0  15328-3 0  9998
2 55144  87.9173 332.8328 0001886 102.6459 257.4884 13.18686930171445
ONEWEB-0560             
1 55145U 23004F   26181.42875889  .00000075  00000+0  15831-3 0  9990
2 55145  87.9175 332.8235 0001833 104.7225 255.4110 13.18688366171457
ONEWEB-0565             
1 55146U 23004G   26181.49790997  .00000008  00000+0 -12932-4 0  9991
2 55146  87.9165 332.8364 0002224 100.3758 259.7625 13.18686242171457
ONEWEB-0567             
1 55147U 23004H   26181.49116353 -.00000002  00000+0 -38127-4 0  9999
2 55147  87.9173 332.8232 0002107 102.9942 257.1426 13.18686659171457
ONEWEB-0569             
1 55148U 23004J   26181.41537673 -.00000105  00000+0 -32263-3 0  9992
2 55148  87.8976 317.5871 0002237 122.1910 237.9436 13.13471361171915
ONEWEB-0570             
1 55149U 23004K   26181.40685079  .00000009  00000+0 -10040-4 0  9998
2 55149  87.9170 332.8376 0002219  89.8895 270.2492 13.18686236171437
ONEWEB-0571             
1 55150U 23004L   26181.47598523  .00000100  00000+0  22109-3 0  9993
2 55150  87.9172 332.8234 0002796 115.5805 244.5616 13.18684725171457
