OBJECT_NAME,OBJECT_ID,EPOCH,MEAN_MOTION,ECCENTRICITY,INCLINATION,RA_OF_ASC_NODE,ARG_OF_PERICENTER,MEAN_ANOMALY,EPHEMERIS_TYPE,CLASSIFICATION_TYPE,NORAD_CAT_ID,ELEMENT_SET_NO,REV_AT_EPOCH,BSTAR,MEAN_MOTION_DOT,MEAN_MOTION_DDOT
ONEWEB-0597,2022-166X,2026-06-30T03:44:41.970048,13.21827417,.00019568,87.9246,241.4070,94.4096,265.7261,0,U,54663,999,17325,.10980151E-3,.58E-6,0
ONEWEB-0600,2022-166Y,2026-06-30T05:07:04.589184,13.21824912,.00018249,87.9247,241.3870,99.1234,261.0106,0,U,54664,999,17323,.1810041E-5,.14E-6,0
ONEWEB-0601,2022-166Z,2026-06-30T13:59:57.236640,13.21824502,.00018773,87.9243,241.3293,90.7568,269.3781,0,U,54665,999,17347,.18360118E-3,.89E-6,0
ONEWEB-0602,2022-166AA,2026-06-30T04:05:17.058048,13.21827357,.00017721,87.9242,241.4173,99.5763,260.5571,0,U,54666,999,17326,.10782662E-3,.58E-6,0
ONEWEB-0603,2022-166AB,2026-06-30T04:13:46.364448,13.21827489,.00019545,87.9251,241.3747,96.7875,263.3482,0,U,54667,999,17319,.2047451E-3,.98E-6,0
ONEWEB-0604,2022-166AC,2026-06-30T03:56:46.796928,13.21828715,.00020823,87.9254,241.3925,99.7360,260.4009,0,U,54668,999,17315,.1182983E-3,.62E-6,0
ONEWEB-0605,2022-166AD,2026-06-30T03:47:07.615392,13.21827688,.00022708,87.9245,241.4063,81.5949,278.5442,0,U,54669,999,17322,.59501311E-4,.38E-6,0
ONEWEB-0606,2022-166AE,2026-06-30T04:18:35.950464,13.21822817,.00021155,87.9242,241.4144,102.2366,257.9005,0,U,54670,999,17328,.17464067E-2,.734E-5,0
ONEWEB-0607,2022-166AF,2026-06-30T05:19:11.237376,13.21824883,.00018839,87.9253,241.3777,95.7324,264.4025,0,U,54671,999,17326,-.98361188E-4,-.28E-6,0
ONEWEB-0608,2022-166AG,2026-06-30T03:39:49.053312,13.21828314,.00019774,87.9254,241.3885,82.5797,277.5562,0,U,54672,999,17326,.10471847E-3,.56E-6,0
ONEWEB-0610,2022-166AH,2026-06-30T04:59:48.511104,13.21824943,.0001693,87.9246,241.3905,80.9327,279.1998,0,U,54673,999,17317,.23209628E-3,.109E-5,0
ONEWEB-0611,2022-166AJ,2026-06-30T13:55:06.270816,13.21826006,.00021223,87.9242,241.3124,100.6051,259.5322,0,U,54674,999,17321,.18019774E-3,.87E-6,0
ONEWEB-0612,2022-166AK,2026-06-30T05:09:29.960640,13.21825685,.00019694,87.9258,241.3819,92.9703,267.1656,0,U,54675,999,17315,.40762592E-4,.3E-6,0
ONEWEB-0615,2022-166AL,2026-06-30T13:45:25.877088,13.21827348,.00020843,87.9248,241.3241,105.4325,254.7039,0,U,54676,999,17321,.21356428E-3,.101E-5,0
ONEWEB-0655,2022-166AM,2026-06-30T04:06:30.021120,13.21827644,.0001798,87.9245,241.4048,98.2941,261.8397,0,U,54677,999,17315,.25555503E-3,.119E-5,0
ONEWEB-0659,2022-166AN,2026-06-30T04:30:43.576704,13.21830457,.00020923,87.9240,241.4026,99.1120,261.0251,0,U,54678,999,17324,-.63132967E-3,-.248E-5,0
ONEWEB-0685,2022-166AP,2026-06-30T13:35:33.528192,13.21847908,.00018559,87.9241,241.3184,88.4468,271.6878,0,U,54679,999,17318,.54392566E-4,.35E-6,0
ONEWEB-0712,2022-166AQ,2026-06-30T03:09:21.178368,13.16595380,.00015842,87.9091,226.2040,100.9276,259.2034,0,U,54680,999,17376,.22223594E-3,.98E-6,0
ONEWEB-0714,2022-166AR,2026-06-30T13:43:01.219296,13.21825330,.00018126,87.9242,241.3150,104.4388,255.6947,0,U,54681,999,17330,.33504332E-4,.27E-6,0
ONEWEB-0532,2023-004A,2026-06-30T11:21:24.386688,13.17647509,.00021512,87.9129,3.2208,84.5290,275.6086,0,U,55140,999,16933,.10339694E-3,.53E-6,0
ONEWEB-0533,2023-004B,2026-06-30T11:51:17.285184,13.12442237,.00016898,87.8951,348.0238,87.5995,272.5327,0,U,55141,999,16980,-.12428851E-2,-.434E-5,0
ONEWEB-0541,2023-004C,2026-06-30T12:49:18.352416,13.11416354,.00020015,87.8888,18.4013,90.3014,269.8343,0,U,55142,999,16769,.14793309E-2,.537E-5,0
ONEWEB-0543,2023-004D,2026-06-30T10:36:51.305472,13.18686765,.00016651,87.9174,332.8318,100.8540,259.2779,0,U,55143,999,17144,.16945885E-3,.8E-6,0
ONEWEB-0544,2023-004E,2026-06-30T10:27:08.619552,13.18686930,.00018869,87.9173,332.8328,102.6459,257.4884,0,U,55144,999,17144,.15327865E-3,.73E-6,0
ONEWEB-0560,2023-004F,2026-06-30T10:17:24.768096,13.18688366,.00018331,87.9175,332.8235,104.7225,255.4110,0,U,55145,999,17145,.15831013E-3,.75E-6,0
ONEWEB-0565,2023-004G,2026-06-30T11:56:59.421408,13.18686242,.00022247,87.9165,332.8364,100.3758,259.7625,0,U,55146,999,17145,-.12931948E-4,.8E-7,0
ONEWEB-0567,2023-004H,2026-06-30T11:47:16.528992,13.18686659,.00021071,87.9173,332.8232,102.9942,257.1426,0,U,55147,999,17145,-.38126796E-4,-.2E-7,0
ONEWEB-0569,2023-004J,2026-06-30T09:58:08.549472,13.13471361,.00022372,87.8976,317.5871,122.1910,237.9436,0,U,55148,999,17191,-.3226257E-3,-.105E-5,0
ONEWEB-0570,2023-004K,2026-06-30T09:45:51.908256,13.18686236,.00022196,87.9170,332.8376,89.8895,270.2492,0,U,55149,999,17143,-.10040014E-4,.9E-7,0
ONEWEB-0571,2023-004L,2026-06-30T11:25:25.123872,13.18684725,.00027966,87.9172,332.8234,115.5805,244.5616,0,U,55150,999,17145,.22108991E-3,.1E-5,0
